CCSDS_OMM_VERS = 2.0
CREATION_DATE  = 
ORIGINATOR     = 

OBJECT_NAME    = ISS OBJECT YC
OBJECT_ID      = 1998-067YC
CENTER_NAME    = EARTH
REF_FRAME      = TEME
TIME_SYSTEM    = UTC
MEAN_ELEMENT_THEORY = SGP/SGP4

EPOCH          = 2026-02-27T05:20:36.874464
MEAN_MOTION    = 15.51504601
ECCENTRICITY   = .00076359
INCLINATION    = 51.6316
RA_OF_ASC_NODE = 123.7650
ARG_OF_PERICENTER = 116.0274
MEAN_ANOMALY   = 244.1502

EPHEMERIS_TYPE = 0
CLASSIFICATION_TYPE = U
NORAD_CAT_ID   = 67686
ELEMENT_SET_NO = 999
REV_AT_EPOCH   = 316
BSTAR          = .81030997E-3
MEAN_MOTION_DOT = .48672E-3
MEAN_MOTION_DDOT = 0

CCSDS_OMM_VERS = 2.0
CREATION_DATE  = 
ORIGINATOR     = 

OBJECT_NAME    = LEOPARD
OBJECT_ID      = 1998-067YD
CENTER_NAME    = EARTH
REF_FRAME      = TEME
TIME_SYSTEM    = UTC
MEAN_ELEMENT_THEORY = SGP/SGP4

EPOCH          = 2026-02-27T05:25:52.490208
MEAN_MOTION    = 15.51031776
ECCENTRICITY   = .00076856
INCLINATION    = 51.6317
RA_OF_ASC_NODE = 123.7886
ARG_OF_PERICENTER = 119.4028
MEAN_ANOMALY   = 240.7729

EPHEMERIS_TYPE = 0
CLASSIFICATION_TYPE = U
NORAD_CAT_ID   = 67687
ELEMENT_SET_NO = 999
REV_AT_EPOCH   = 308
BSTAR          = .65615317E-3
MEAN_MOTION_DOT = .3861E-3
MEAN_MOTION_DDOT = 0

CCSDS_OMM_VERS = 2.0
CREATION_DATE  = 
ORIGINATOR     = 

OBJECT_NAME    = ISS OBJECT YE
OBJECT_ID      = 1998-067YE
CENTER_NAME    = EARTH
REF_FRAME      = TEME
TIME_SYSTEM    = UTC
MEAN_ELEMENT_THEORY = SGP/SGP4

EPOCH          = 2026-02-27T05:22:14.997216
MEAN_MOTION    = 15.51346804
ECCENTRICITY   = .00076207
INCLINATION    = 51.6318
RA_OF_ASC_NODE = 123.7727
ARG_OF_PERICENTER = 116.7644
MEAN_ANOMALY   = 243.4126

EPHEMERIS_TYPE = 0
CLASSIFICATION_TYPE = U
NORAD_CAT_ID   = 67688
ELEMENT_SET_NO = 999
REV_AT_EPOCH   = 308
BSTAR          = .76399081E-3
MEAN_MOTION_DOT = .45585E-3
MEAN_MOTION_DDOT = 0

CCSDS_OMM_VERS = 2.0
CREATION_DATE  = 
ORIGINATOR     = 

OBJECT_NAME    = CZ-2F R/B
OBJECT_ID      = 2026-024B
CENTER_NAME    = EARTH
REF_FRAME      = TEME
TIME_SYSTEM    = UTC
MEAN_ELEMENT_THEORY = SGP/SGP4

EPOCH          = 2026-02-27T06:45:02.108160
MEAN_MOTION    = 15.33868342
ECCENTRICITY   = .01757127
INCLINATION    = 49.9879
RA_OF_ASC_NODE = 66.7848
ARG_OF_PERICENTER = 231.7748
MEAN_ANOMALY   = 126.7282

EPHEMERIS_TYPE = 0
CLASSIFICATION_TYPE = U
NORAD_CAT_ID   = 67690
ELEMENT_SET_NO = 999
REV_AT_EPOCH   = 309
BSTAR          = .36780467E-3
MEAN_MOTION_DOT = .19925E-3
MEAN_MOTION_DDOT = 0

CCSDS_OMM_VERS = 2.0
CREATION_DATE  = 
ORIGINATOR     = 

OBJECT_NAME    = CZ-2F DEB
OBJECT_ID      = 2026-024C
CENTER_NAME    = EARTH
REF_FRAME      = TEME
TIME_SYSTEM    = UTC
MEAN_ELEMENT_THEORY = SGP/SGP4

EPOCH          = 2026-02-27T06:22:05.338848
MEAN_MOTION    = 15.85059450
ECCENTRICITY   = .01896404
INCLINATION    = 49.9048
RA_OF_ASC_NODE = 61.1340
ARG_OF_PERICENTER = 243.7951
MEAN_ANOMALY   = 114.3422

EPHEMERIS_TYPE = 0
CLASSIFICATION_TYPE = U
NORAD_CAT_ID   = 67691
ELEMENT_SET_NO = 999
REV_AT_EPOCH   = 315
BSTAR          = .80170485E-3
MEAN_MOTION_DOT = .916719E-2
MEAN_MOTION_DDOT = .10648475E-4

CCSDS_OMM_VERS = 2.0
CREATION_DATE  = 
ORIGINATOR     = 

OBJECT_NAME    = CZ-2F DEB
OBJECT_ID      = 2026-024D
CENTER_NAME    = EARTH
REF_FRAME      = TEME
TIME_SYSTEM    = UTC
MEAN_ELEMENT_THEORY = SGP/SGP4

EPOCH          = 2026-02-27T05:52:06.038976
MEAN_MOTION    = 15.20812046
ECCENTRICITY   = .02468614
INCLINATION    = 50.3169
RA_OF_ASC_NODE = 69.8658
ARG_OF_PERICENTER = 238.9676
MEAN_ANOMALY   = 118.6833

EPHEMERIS_TYPE = 0
CLASSIFICATION_TYPE = U
NORAD_CAT_ID   = 67692
ELEMENT_SET_NO = 999
REV_AT_EPOCH   = 303
BSTAR          = .38471882E-2
MEAN_MOTION_DOT = .205315E-2
MEAN_MOTION_DDOT = 0

CCSDS_OMM_VERS = 2.0
CREATION_DATE  = 
ORIGINATOR     = 

OBJECT_NAME    = STARLINK-36748
OBJECT_ID      = 2026-025A
CENTER_NAME    = EARTH
REF_FRAME      = TEME
TIME_SYSTEM    = UTC
MEAN_ELEMENT_THEORY = SGP/SGP4

EPOCH          = 2026-02-27T06:00:39.619584
MEAN_MOTION    = 15.75168111
ECCENTRICITY   = .00008356
INCLINATION    = 97.2843
RA_OF_ASC_NODE = 169.2673
ARG_OF_PERICENTER = 2.9473
MEAN_ANOMALY   = 357.1797

EPHEMERIS_TYPE = 0
CLASSIFICATION_TYPE = U
NORAD_CAT_ID   = 67693
ELEMENT_SET_NO = 999
REV_AT_EPOCH   = 429
BSTAR          = .39742776E-3
MEAN_MOTION_DOT = .59505E-3
MEAN_MOTION_DDOT = 0

CCSDS_OMM_VERS = 2.0
CREATION_DATE  = 
ORIGINATOR     = 

OBJECT_NAME    = STARLINK-36753
OBJECT_ID      = 2026-025B
CENTER_NAME    = EARTH
REF_FRAME      = TEME
TIME_SYSTEM    = UTC
MEAN_ELEMENT_THEORY = SGP/SGP4

EPOCH          = 2026-02-27T06:00:02.000160
MEAN_MOTION    = 15.75110441
ECCENTRICITY   = .00013749
INCLINATION    = 97.2846
RA_OF_ASC_NODE = 169.2864
ARG_OF_PERICENTER = 89.7464
MEAN_ANOMALY   = 311.9380

EPHEMERIS_TYPE = 0
CLASSIFICATION_TYPE = U
NORAD_CAT_ID   = 67694
ELEMENT_SET_NO = 999
REV_AT_EPOCH   = 433
BSTAR          = .10393869E-2
MEAN_MOTION_DOT = .157247E-2
MEAN_MOTION_DDOT = 0

CCSDS_OMM_VERS = 2.0
CREATION_DATE  = 
ORIGINATOR     = 

OBJECT_NAME    = STARLINK-36750
OBJECT_ID      = 2026-025C
CENTER_NAME    = EARTH
REF_FRAME      = TEME
TIME_SYSTEM    = UTC
MEAN_ELEMENT_THEORY = SGP/SGP4

EPOCH          = 2026-02-27T05:38:21.276672
MEAN_MOTION    = 15.80876935
ECCENTRICITY   = .00012032
INCLINATION    = 97.2849
RA_OF_ASC_NODE = 169.2881
ARG_OF_PERICENTER = 105.4971
MEAN_ANOMALY   = 254.6430

EPHEMERIS_TYPE = 0
CLASSIFICATION_TYPE = U
NORAD_CAT_ID   = 67695
ELEMENT_SET_NO = 999
REV_AT_EPOCH   = 429
BSTAR          = .87219733E-3
MEAN_MOTION_DOT = .170707E-2
MEAN_MOTION_DDOT = 0

CCSDS_OMM_VERS = 2.0
CREATION_DATE  = 
ORIGINATOR     = 

OBJECT_NAME    = STARLINK-36401
OBJECT_ID      = 2026-025D
CENTER_NAME    = EARTH
REF_FRAME      = TEME
TIME_SYSTEM    = UTC
MEAN_ELEMENT_THEORY = SGP/SGP4

EPOCH          = 2026-02-27T05:36:07.283232
MEAN_MOTION    = 15.80871763
ECCENTRICITY   = .00012905
INCLINATION    = 97.2850
RA_OF_ASC_NODE = 169.2900
ARG_OF_PERICENTER = 75.9822
MEAN_ANOMALY   = 284.1590

EPHEMERIS_TYPE = 0
CLASSIFICATION_TYPE = U
NORAD_CAT_ID   = 67696
ELEMENT_SET_NO = 999
REV_AT_EPOCH   = 429
BSTAR          = .84831522E-3
MEAN_MOTION_DOT = .165898E-2
MEAN_MOTION_DDOT = 0

CCSDS_OMM_VERS = 2.0
CREATION_DATE  = 
ORIGINATOR     = 

OBJECT_NAME    = STARLINK-36704
OBJECT_ID      = 2026-025E
CENTER_NAME    = EARTH
REF_FRAME      = TEME
TIME_SYSTEM    = UTC
MEAN_ELEMENT_THEORY = SGP/SGP4

EPOCH          = 2026-02-27T06:00:02.000160
MEAN_MOTION    = 15.75111732
ECCENTRICITY   = .00015644
INCLINATION    = 97.2848
RA_OF_ASC_NODE = 169.2910
ARG_OF_PERICENTER = 93.5758
MEAN_ANOMALY   = 320.1125

EPHEMERIS_TYPE = 0
CLASSIFICATION_TYPE = U
NORAD_CAT_ID   = 67697
ELEMENT_SET_NO = 999
REV_AT_EPOCH   = 417
BSTAR          = .8676334E-3
MEAN_MOTION_DOT = .130842E-2
MEAN_MOTION_DDOT = 0

