ISS OBJECT YC           
1 67686U 98067YC  26058.22264901  .00048672  00000+0  81031-3 0  9992
2 67686  51.6316 123.7650 0007635 116.0274 244.1502 15.51504601  3169
LEOPARD                 
1 67687U 98067YD  26058.22630197  .00038610  00000+0  65615-3 0  9998
2 67687  51.6317 123.7886 0007685 119.4028 240.7729 15.51031776  3083
ISS OBJECT YE           
1 67688U 98067YE  26058.22378469  .00045585  00000+0  76399-3 0  9990
2 67688  51.6318 123.7727 0007620 116.7644 243.4126 15.51346804  3084
CZ-2F R/B               
1 67690U 26024B   26058.28127440  .00019925  00000+0  36780-3 0  9993
2 67690  49.9879  66.7848 0175712 231.7748 126.7282 15.33868342  3093
CZ-2F DEB               
1 67691U 26024C   26058.26533957  .00916719  10648-4  80170-3 0  9999
2 67691  49.9048  61.1340 0189640 243.7951 114.3422 15.85059450  3157
CZ-2F DEB               
1 67692U 26024D   26058.24451434  .00205315  00000+0  38472-2 0  9993
2 67692  50.3169  69.8658 0246861 238.9676 118.6833 15.20812046  3031
STARLINK-36748          
1 67693U 26025A   26058.25045856  .00059505  00000+0  39743-3 0  9994
2 67693  97.2843 169.2673 0000835   2.9473 357.1797 15.75168111  4291
STARLINK-36753          
1 67694U 26025B   26058.25002315  .00157247  00000+0  10394-2 0  9990
2 67694  97.2846 169.2864 0001374  89.7464 311.9380 15.75110441  4333
STARLINK-36750          
1 67695U 26025C   26058.23496848  .00170707  00000+0  87220-3 0  9996
2 67695  97.2849 169.2881 0001203 105.4971 254.6430 15.80876935  4293
STARLINK-36401          
1 67696U 26025D   26058.23341763  .00165898  00000+0  84832-3 0  9993
2 67696  97.2850 169.2900 0001290  75.9822 284.1590 15.80871763  4299
STARLINK-36704          
1 67697U 26025E   26058.25002315  .00130842  00000+0  86763-3 0  9999
2 67697  97.2848 169.2910 0001564  93.5758 320.1125 15.75111732  4175
